[{"OBJECT_NAME":"DONGPO 10","OBJECT_ID":"2022-167H","EPOCH":"2026-03-09T22:44:56.137344","MEAN_MOTION":15.322785,"ECCENTRICITY":0.00061655,"INCLINATION":97.685,"RA_OF_ASC_NODE":235.0962,"ARG_OF_PERICENTER":106.9526,"MEAN_ANOMALY":253.2392,"EPHEMERIS_TYPE":0,"CLASSIFICATION_TYPE":"U","NORAD_CAT_ID":54689,"ELEMENT_SET_NO":999,"REV_AT_EPOCH":18015,"BSTAR":0.00049390523,"MEAN_MOTION_DOT":0.00015333,"MEAN_MOTION_DDOT":0},{"OBJECT_NAME":"STARLINK-35559","OBJECT_ID":"2025-236K","EPOCH":"2026-03-09T12:52:33.363264","MEAN_MOTION":15.30196044,"ECCENTRICITY":0.00013487,"INCLINATION":53.1589,"RA_OF_ASC_NODE":104.4063,"ARG_OF_PERICENTER":88.8812,"MEAN_ANOMALY":271.2343,"EPHEMERIS_TYPE":0,"CLASSIFICATION_TYPE":"U","NORAD_CAT_ID":66095,"ELEMENT_SET_NO":999,"REV_AT_EPOCH":2292,"BSTAR":0.00089097535,"MEAN_MOTION_DOT":0.00026119,"MEAN_MOTION_DDOT":0}]
